{"type": "FeatureCollection", "features": [ {"type": "Feature", "properties": {"norad_id": 66967, "name": "STARLINK-36136", "group": "last-30-days", "lat": -22.591545197102068, "lon": -24.0369207799569, "alt_km": 316.8037554008224, "timestamp": "2025-12-18T21:31:49.701463+00:00", "meta": {"OBJECT_NAME": "STARLINK-36136", "OBJECT_ID": "2025-288J", "EPOCH": "2025-12-18T06:00:02.999808", "MEAN_MOTION": 15.87008852, "ECCENTRICITY": 0.00016831, "INCLINATION": 43.0011, "RA_OF_ASC_NODE": 133.4344, "ARG_OF_PERICENTER": 265.6062, "MEAN_ANOMALY": 209.2583, "EPHEMERIS_TYPE": 0, "CLASSIFICATION_TYPE": "U", "NORAD_CAT_ID": 66967, "ELEMENT_SET_NO": 999, "REV_AT_EPOCH": 271, "BSTAR": -0.0052016511, "MEAN_MOTION_DOT": -0.01236878, "MEAN_MOTION_DDOT": 0}, "tle": {"line1": "1 66967U 25288J   25352.25003472 -.01236878  00000+0 -52017-2 0  9992", "line2": "2 66967  43.0011 133.4344 0001683 265.6062 209.2583 15.87008852  2715"}}, "geometry": {"type": "Point", "coordinates": [-24.0369207799569, -22.591545197102068]}}, {"type": "Feature", "properties": {"norad_id": 66968, "name": "STARLINK-36152", "group": "last-30-days", "lat": -24.206050218012518, "lon": -21.720576471192647, "alt_km": 317.1818837219171, "timestamp": "2025-12-18T21:31:49.701474+00:00", "meta": {"OBJECT_NAME": "STARLINK-36152", "OBJECT_ID": "2025-288K", "EPOCH": "2025-12-18T06:00:02.999808", "MEAN_MOTION": 15.87033956, "ECCENTRICITY": 0.00014649, "INCLINATION": 43.0011, "RA_OF_ASC_NODE": 133.4276, "ARG_OF_PERICENTER": 275.8066, "MEAN_ANOMALY": 201.7017, "EPHEMERIS_TYPE": 0, "CLASSIFICATION_TYPE": "U", "NORAD_CAT_ID": 66968, "ELEMENT_SET_NO": 999, "REV_AT_EPOCH": 271, "BSTAR": -0.0052636095, "MEAN_MOTION_DOT": -0.0125119, "MEAN_MOTION_DDOT": 0}, "tle": {"line1": "1 66968U 25288K   25352.25003472 -.01251190  00000+0 -52636-2 0  9994", "line2": "2 66968  43.0011 133.4276 0001464 275.8066 201.7017 15.87033956  2716"}}, "geometry": {"type": "Point", "coordinates": [-21.720576471192647, -24.206050218012518]}}, {"type": "Feature", "properties": {"norad_id": 66969, "name": "STARLINK-36149", "group": "last-30-days", "lat": -30.7783562699322, "lon": -10.864310119533258, "alt_km": 317.15399662372783, "timestamp": "2025-12-18T21:31:49.701484+00:00", "meta": {"OBJECT_NAME": "STARLINK-36149", "OBJECT_ID": "2025-288L", "EPOCH": "2025-12-18T06:00:02.999808", "MEAN_MOTION": 15.8718563, "ECCENTRICITY": 0.00015279, "INCLINATION": 43.0012, "RA_OF_ASC_NODE": 133.3989, "ARG_OF_PERICENTER": 276.3084, "MEAN_ANOMALY": 212.6093, "EPHEMERIS_TYPE": 0, "CLASSIFICATION_TYPE": "U", "NORAD_CAT_ID": 66969, "ELEMENT_SET_NO": 999, "REV_AT_EPOCH": 271, "BSTAR": -0.0054402858, "MEAN_MOTION_DOT": -0.0129695, "MEAN_MOTION_DDOT": 0}, "tle": {"line1": "1 66969U 25288L   25352.25003472 -.01296950  00000+0 -54403-2 0  9992", "line2": "2 66969  43.0012 133.3989 0001527 276.3084 212.6093 15.87185630  2716"}}, "geometry": {"type": "Point", "coordinates": [-10.864310119533258, -30.7783562699322]}}, {"type": "Feature", "properties": {"norad_id": 66970, "name": "STARLINK-35703", "group": "last-30-days", "lat": -35.31207911285716, "lon": -1.1394885681137812, "alt_km": 317.20863372210715, "timestamp": "2025-12-18T21:31:49.701493+00:00", "meta": {"OBJECT_NAME": "STARLINK-35703", "OBJECT_ID": "2025-288M", "EPOCH": "2025-12-18T06:00:02.999808", "MEAN_MOTION": 15.87326005, "ECCENTRICITY": 0.00015612, "INCLINATION": 43.0011, "RA_OF_ASC_NODE": 133.3755, "ARG_OF_PERICENTER": 273.4387, "MEAN_ANOMALY": 224.6925, "EPHEMERIS_TYPE": 0, "CLASSIFICATION_TYPE": "U", "NORAD_CAT_ID": 66970, "ELEMENT_SET_NO": 999, "REV_AT_EPOCH": 271, "BSTAR": -0.0059072441, "MEAN_MOTION_DOT": -0.01402594, "MEAN_MOTION_DDOT": 0}, "tle": {"line1": "1 66970U 25288M   25352.25003472 -.01402594  00000+0 -59072-2 0  9994", "line2": "2 66970  43.0011 133.3755 0001561 273.4387 224.6925 15.87326005  2710"}}, "geometry": {"type": "Point", "coordinates": [-1.1394885681137812, -35.31207911285716]}}, {"type": "Feature", "properties": {"norad_id": 66971, "name": "STARLINK-35678", "group": "last-30-days", "lat": -25.19965955923157, "lon": -20.238850761588875, "alt_km": 316.96795448874036, "timestamp": "2025-12-18T21:31:49.701503+00:00", "meta": {"OBJECT_NAME": "STARLINK-35678", "OBJECT_ID": "2025-288N", "EPOCH": "2025-12-18T06:00:02.999808", "MEAN_MOTION": 15.8706676, "ECCENTRICITY": 0.00016874, "INCLINATION": 43.0014, "RA_OF_ASC_NODE": 133.4242, "ARG_OF_PERICENTER": 273.5543, "MEAN_ANOMALY": 205.5412, "EPHEMERIS_TYPE": 0, "CLASSIFICATION_TYPE": "U", "NORAD_CAT_ID": 66971, "ELEMENT_SET_NO": 999, "REV_AT_EPOCH": 271, "BSTAR": -0.0052158627, "MEAN_MOTION_DOT": -0.01243064, "MEAN_MOTION_DDOT": 0}, "tle": {"line1": "1 66971U 25288N   25352.25003472 -.01243064  00000+0 -52159-2 0  9999", "line2": "2 66971  43.0014 133.4242 0001687 273.5543 205.5412 15.87066760  2718"}}, "geometry": {"type": "Point", "coordinates": [-20.238850761588875, -25.19965955923157]}}, {"type": "Feature", "properties": {"norad_id": 66972, "name": "STARLINK-34846", "group": "last-30-days", "lat": -26.742958155704947, "lon": -17.84109702985655, "alt_km": 317.0032246099736, "timestamp": "2025-12-18T21:31:49.701513+00:00", "meta": {"OBJECT_NAME": "STARLINK-34846", "OBJECT_ID": "2025-288P", "EPOCH": "2025-12-18T06:00:02.999808", "MEAN_MOTION": 15.87100094, "ECCENTRICITY": 0.00016543, "INCLINATION": 43.0013, "RA_OF_ASC_NODE": 133.4175, "ARG_OF_PERICENTER": 273.2168, "MEAN_ANOMALY": 208.49, "EPHEMERIS_TYPE": 0, "CLASSIFICATION_TYPE": "U", "NORAD_CAT_ID": 66972, "ELEMENT_SET_NO": 999, "REV_AT_EPOCH": 271, "BSTAR": -0.0052898726, "MEAN_MOTION_DOT": -0.01260525, "MEAN_MOTION_DDOT": 0}, "tle": {"line1": "1 66972U 25288P   25352.25003472 -.01260525  00000+0 -52899-2 0  9992", "line2": "2 66972  43.0013 133.4175 0001654 273.2168 208.4900 15.87100094  2710"}}, "geometry": {"type": "Point", "coordinates": [-17.84109702985655, -26.742958155704947]}}, {"type": "Feature", "properties": {"norad_id": 66973, "name": "STARLINK-35778", "group": "last-30-days", "lat": -28.110923859643908, "lon": -15.603155956978492, "alt_km": 316.99955864169897, "timestamp": "2025-12-18T21:31:49.701525+00:00", "meta": {"OBJECT_NAME": "STARLINK-35778", "OBJECT_ID": "2025-288Q", "EPOCH": "2025-12-18T06:00:02.999808", "MEAN_MOTION": 15.87120747, "ECCENTRICITY": 0.00016264, "INCLINATION": 43.0014, "RA_OF_ASC_NODE": 133.4116, "ARG_OF_PERICENTER": 272.5774, "MEAN_ANOMALY": 211.5046, "EPHEMERIS_TYPE": 0, "CLASSIFICATION_TYPE": "U", "NORAD_CAT_ID": 66973, "ELEMENT_SET_NO": 999, "REV_AT_EPOCH": 271, "BSTAR": -0.0052997669, "MEAN_MOTION_DOT": -0.01263748, "MEAN_MOTION_DDOT": 0}, "tle": {"line1": "1 66973U 25288Q   25352.25003472 -.01263748  00000+0 -52998-2 0  9993", "line2": "2 66973  43.0014 133.4116 0001626 272.5774 211.5046 15.87120747  2714"}}, "geometry": {"type": "Point", "coordinates": [-15.603155956978492, -28.110923859643908]}}, {"type": "Feature", "properties": {"norad_id": 66974, "name": "STARLINK-35780", "group": "last-30-days", "lat": -29.398098158092335, "lon": -13.384921979863382, "alt_km": 317.036326243202, "timestamp": "2025-12-18T21:31:49.701535+00:00", "meta": {"OBJECT_NAME": "STARLINK-35780", "OBJECT_ID": "2025-288R", "EPOCH": "2025-12-18T06:00:02.999808", "MEAN_MOTION": 15.87150841, "ECCENTRICITY": 0.00016328, "INCLINATION": 43.0016, "RA_OF_ASC_NODE": 133.406, "ARG_OF_PERICENTER": 274.7496, "MEAN_ANOMALY": 211.6166, "EPHEMERIS_TYPE": 0, "CLASSIFICATION_TYPE": "U", "NORAD_CAT_ID": 66974, "ELEMENT_SET_NO": 999, "REV_AT_EPOCH": 271, "BSTAR": -0.0053325788, "MEAN_MOTION_DOT": -0.01272364, "MEAN_MOTION_DDOT": 0}, "tle": {"line1": "1 66974U 25288R   25352.25003472 -.01272364  00000+0 -53326-2 0  9994", "line2": "2 66974  43.0016 133.4060 0001632 274.7496 211.6166 15.87150841  2719"}}, "geometry": {"type": "Point", "coordinates": [-13.384921979863382, -29.398098158092335]}}, {"type": "Feature", "properties": {"norad_id": 66975, "name": "STARLINK-35777", "group": "last-30-days", "lat": -31.869043826193668, "lon": -8.751641559762307, "alt_km": 317.0498642106868, "timestamp": "2025-12-18T21:31:49.701549+00:00", "meta": {"OBJECT_NAME": "STARLINK-35777", "OBJECT_ID": "2025-288S", "EPOCH": "2025-12-18T06:00:02.999808", "MEAN_MOTION": 15.8722347, "ECCENTRICITY": 0.0001567, "INCLINATION": 43.0017, "RA_OF_ASC_NODE": 133.3939, "ARG_OF_PERICENTER": 272.8868, "MEAN_ANOMALY": 218.086, "EPHEMERIS_TYPE": 0, "CLASSIFICATION_TYPE": "U", "NORAD_CAT_ID": 66975, "ELEMENT_SET_NO": 999, "REV_AT_EPOCH": 271, "BSTAR": -0.0055075141, "MEAN_MOTION_DOT": -0.01313272, "MEAN_MOTION_DDOT": 0}, "tle": {"line1": "1 66975U 25288S   25352.25003472 -.01313272  00000+0 -55075-2 0  9992", "line2": "2 66975  43.0017 133.3939 0001567 272.8868 218.0860 15.87223470  2715"}}, "geometry": {"type": "Point", "coordinates": [-8.751641559762307, -31.869043826193668]}}, {"type": "Feature", "properties": {"norad_id": 66976, "name": "STARLINK-35772", "group": "last-30-days", "lat": 21.66779987339802, "lon": -75.623907330078, "alt_km": 341.8013745806729, "timestamp": "2025-12-18T21:31:49.701576+00:00", "meta": {"OBJECT_NAME": "STARLINK-35772", "OBJECT_ID": "2025-288T", "EPOCH": "2025-12-18T06:00:02.999808", "MEAN_MOTION": 15.78434559, "ECCENTRICITY": 0.00014932, "INCLINATION": 43.0011, "RA_OF_ASC_NODE": 133.5479, "ARG_OF_PERICENTER": 277.7961, "MEAN_ANOMALY": 151.9098, "EPHEMERIS_TYPE": 0, "CLASSIFICATION_TYPE": "U", "NORAD_CAT_ID": 66976, "ELEMENT_SET_NO": 999, "REV_AT_EPOCH": 271, "BSTAR": -0.015358147, "MEAN_MOTION_DOT": -0.02368344, "MEAN_MOTION_DDOT": 0}, "tle": {"line1": "1 66976U 25288T   25352.25003472 -.02368344  00000+0 -15358-1 0  9993", "line2": "2 66976  43.0011 133.5479 0001493 277.7961 151.9098 15.78434559  2717"}}, "geometry": {"type": "Point", "coordinates": [-75.623907330078, 21.66779987339802]}}]}